{
"type": "FeatureCollection",
"name": "all_hfs_central_northern",
"crs": { "type": "name", "properties": { "name": "urn:ogc:def:crs:OGC:1.3:CRS84" } },
"features": [
{"type":"Feature","properties":{"fid":1,"OBJECTID":65,"HCDESC":"Boru HC","PROVINCE":3,"DISTRICT":301,"HFCODE":30101,"Contact":"Baá Apu","Designatio":"CHW","Phone_No":" ","New_XY":1,"TYPE":1,"AGENCY":2,"STATUS":1,"MO":0,"HEO":0,"NO":0,"CHW":2,"APOST":0,"TOTAL_MED_":2,"NO_DEPENDE":2,"LAT":" ","LONG":" ","X_new":148.84,"X_Max":148.96,"X_Min":148.72,"Y_new":-10.23,"Y_Max":-10.35,"Y_Min":-10.11,"Pic_name":"Health/Central/HCs/Boru/","Field28":" ","Reported":1,"NHISCases":100,"BldRes5km":104,"BldOth5km":4,"BldRes10km":117,"BldOth10km":4,"BldRes15km":433,"BldOth15km":9,"BldRes20km":645,"BldOth20km":39,"BldRes30km":1011,"BldOth30km":43},"geometry":{"type":"Point","coordinates":[148.847159999734231,-10.234609999951488]}},
{"type":"Feature","properties":{"fid":2,"OBJECTID":66,"HCDESC":"Iruna HC","PROVINCE":3,"DISTRICT":301,"HFCODE":30102,"Contact":"Merin Ronnie","Designatio":"SIC","Phone_No":"713 50765","New_XY":1,"TYPE":1,"AGENCY":2,"STATUS":1,"MO":0,"HEO":0,"NO":2,"CHW":3,"APOST":0,"TOTAL_MED_":5,"NO_DEPENDE":5,"LAT":" ","LONG":" ","X_new":149.33,"X_Max":149.45,"X_Min":149.21,"Y_new":-10.3,"Y_Max":-10.41,"Y_Min":-10.18,"Pic_name":"Health/Central/HCs/Iruna/","Field28":" ","Reported":1,"NHISCases":100,"BldRes5km":489,"BldOth5km":26,"BldRes10km":896,"BldOth10km":51,"BldRes15km":1208,"BldOth15km":63,"BldRes20km":1463,"BldOth20km":75,"BldRes30km":1834,"BldOth30km":80},"geometry":{"type":"Point","coordinates":[149.33731199964916,-10.301174000179913]}},
{"type":"Feature","properties":{"fid":3,"OBJECTID":67,"HCDESC":"Kupiano HC","PROVINCE":3,"DISTRICT":301,"HFCODE":30103,"Contact":"Allan Jack","Designatio":" ","Phone_No":"718 81250","New_XY":1,"TYPE":1,"AGENCY":1,"STATUS":1,"MO":0,"HEO":2,"NO":2,"CHW":9,"APOST":0,"TOTAL_MED_":13,"NO_DEPENDE":6,"LAT":" ","LONG":" ","X_new":148.18,"X_Max":148.3,"X_Min":148.06,"Y_new":-10.07,"Y_Max":-10.19,"Y_Min":-9.96,"Pic_name":"Health/Central/HCs/Kupiano/","Field28":" ","Reported":1,"NHISCases":100,"BldRes5km":1196,"BldOth5km":52,"BldRes10km":1646,"BldOth10km":58,"BldRes15km":2226,"BldOth15km":66,"BldRes20km":3900,"BldOth20km":108,"BldRes30km":5813,"BldOth30km":174},"geometry":{"type":"Point","coordinates":[148.185779999647366,-10.077109999726645]}},
{"type":"Feature","properties":{"fid":4,"OBJECTID":68,"HCDESC":"Moreguina HC","PROVINCE":3,"DISTRICT":301,"HFCODE":30104,"Contact":"Moses Kenava","Designatio":"HEO","Phone_No":"71136334","New_XY":1,"TYPE":1,"AGENCY":1,"STATUS":1,"MO":0,"HEO":0,"NO":2,"CHW":7,"APOST":0,"TOTAL_MED_":9,"NO_DEPENDE":6,"LAT":" ","LONG":" ","X_new":148.47,"X_Max":148.59,"X_Min":148.35,"Y_new":-10.01,"Y_Max":-10.13,"Y_Min":-9.89,"Pic_name":"Health/Central/HCs/Moreguina/","Field28":" ","Reported":1,"NHISCases":100,"BldRes5km":482,"BldOth5km":53,"BldRes10km":895,"BldOth10km":97,"BldRes15km":1325,"BldOth15km":107,"BldRes20km":2034,"BldOth20km":123,"BldRes30km":3710,"BldOth30km":150},"geometry":{"type":"Point","coordinates":[148.47624399996073,-10.014848000035101]}},
{"type":"Feature","properties":{"fid":5,"OBJECTID":69,"HCDESC":"Upulima SC","PROVINCE":3,"DISTRICT":301,"HFCODE":30105,"Contact":"M. Velekiri","Designatio":"CHW","Phone_No":" ","New_XY":1,"TYPE":3,"AGENCY":1,"STATUS":1,"MO":0,"HEO":0,"NO":1,"CHW":3,"APOST":0,"TOTAL_MED_":4,"NO_DEPENDE":0,"LAT":" ","LONG":" ","X_new":148.2,"X_Max":148.32,"X_Min":148.08,"Y_new":-9.93,"Y_Max":-10.05,"Y_Min":-9.82,"Pic_name":"Health/Central/HCs/Upulima/","Field28":" ","Reported":1,"NHISCases":100,"BldRes5km":387,"BldOth5km":15,"BldRes10km":771,"BldOth10km":25,"BldRes15km":1255,"BldOth15km":43,"BldRes20km":2356,"BldOth20km":91,"BldRes30km":5356,"BldOth30km":179},"geometry":{"type":"Point","coordinates":[148.206509999636864,-9.939329999679671]}},
{"type":"Feature","properties":{"fid":6,"OBJECTID":70,"HCDESC":"Fane SC","PROVINCE":3,"DISTRICT":302,"HFCODE":30201,"Contact":"Rapheal Emai","Designatio":"CHW","Phone_No":"635 7722","New_XY":1,"TYPE":3,"AGENCY":2,"STATUS":1,"MO":0,"HEO":0,"NO":0,"CHW":3,"APOST":0,"TOTAL_MED_":3,"NO_DEPENDE":2,"LAT":" ","LONG":" ","X_new":147.08,"X_Max":147.2,"X_Min":146.96,"Y_new":-8.55,"Y_Max":-8.66,"Y_Min":-8.43,"Pic_name":"Health/Central/HCs/Fane/","Field28":" ","Reported":0,"NHISCases":100,"BldRes5km":886,"BldOth5km":8,"BldRes10km":1937,"BldOth10km":64,"BldRes15km":2202,"BldOth15km":64,"BldRes20km":3072,"BldOth20km":74,"BldRes30km":5545,"BldOth30km":124},"geometry":{"type":"Point","coordinates":[147.084309999706761,-8.551029999734681]}},
{"type":"Feature","properties":{"fid":7,"OBJECTID":71,"HCDESC":"Kamulai SC","PROVINCE":3,"DISTRICT":302,"HFCODE":30202,"Contact":"Terrence Oa","Designatio":"OIC","Phone_No":"724 32 841","New_XY":1,"TYPE":3,"AGENCY":2,"STATUS":0,"MO":0,"HEO":0,"NO":0,"CHW":3,"APOST":0,"TOTAL_MED_":3,"NO_DEPENDE":2,"LAT":" ","LONG":" ","X_new":146.836757,"X_Max":146.954152,"X_Min":146.719362,"Y_new":-8.14843,"Y_Max":-8.265162,"Y_Min":-8.031698,"Pic_name":"Health/Central/HCs/Kamulai/","Field28":" ","Reported":0,"NHISCases":100,"BldRes5km":144,"BldOth5km":6,"BldRes10km":556,"BldOth10km":10,"BldRes15km":1106,"BldOth15km":12,"BldRes20km":1869,"BldOth20km":16,"BldRes30km":3361,"BldOth30km":35},"geometry":{"type":"Point","coordinates":[146.836756999735826,-8.148430000244275]}},
{"type":"Feature","properties":{"fid":8,"OBJECTID":72,"HCDESC":"Ononge SC","PROVINCE":3,"DISTRICT":302,"HFCODE":30203,"Contact":"Henry Koga","Designatio":"CHW","Phone_No":"325 6102","New_XY":1,"TYPE":3,"AGENCY":2,"STATUS":1,"MO":0,"HEO":0,"NO":0,"CHW":3,"APOST":0,"TOTAL_MED_":3,"NO_DEPENDE":0,"LAT":" ","LONG":" ","X_new":147.26,"X_Max":147.38,"X_Min":147.14,"Y_new":-8.66,"Y_Max":-8.78,"Y_Min":-8.55,"Pic_name":"Health/Central/HCs/Ononge/","Field28":" ","Reported":0,"NHISCases":100,"BldRes5km":470,"BldOth5km":9,"BldRes10km":1252,"BldOth10km":15,"BldRes15km":1677,"BldOth15km":18,"BldRes20km":2628,"BldOth20km":71,"BldRes30km":5113,"BldOth30km":94},"geometry":{"type":"Point","coordinates":[147.26262999957487,-8.667159999634237]}},
{"type":"Feature","properties":{"fid":9,"OBJECTID":73,"HCDESC":"Tapini HC","PROVINCE":3,"DISTRICT":302,"HFCODE":30204,"Contact":"Terrence Oa","Designatio":"OIC","Phone_No":"724 32 841","New_XY":1,"TYPE":1,"AGENCY":2,"STATUS":1,"MO":0,"HEO":0,"NO":0,"CHW":4,"APOST":0,"TOTAL_MED_":4,"NO_DEPENDE":6,"LAT":" ","LONG":" ","X_new":146.98,"X_Max":147.1,"X_Min":146.87,"Y_new":-8.35,"Y_Max":-8.47,"Y_Min":-8.23,"Pic_name":"Health/Central/HCs/Tapini/","Field28":" ","Reported":0,"NHISCases":100,"BldRes5km":413,"BldOth5km":18,"BldRes10km":933,"BldOth10km":21,"BldRes15km":1708,"BldOth15km":25,"BldRes20km":2828,"BldOth20km":29,"BldRes30km":5564,"BldOth30km":102},"geometry":{"type":"Point","coordinates":[146.987524999778998,-8.35533199977192]}},
{"type":"Feature","properties":{"fid":10,"OBJECTID":74,"HCDESC":"Woitape HC","PROVINCE":3,"DISTRICT":302,"HFCODE":30205,"Contact":"Rachael Mang","Designatio":"NO","Phone_No":"276 3060","New_XY":1,"TYPE":1,"AGENCY":1,"STATUS":1,"MO":0,"HEO":0,"NO":1,"CHW":7,"APOST":0,"TOTAL_MED_":8,"NO_DEPENDE":0,"LAT":" ","LONG":" ","X_new":147.25,"X_Max":147.36,"X_Min":147.13,"Y_new":-8.54,"Y_Max":-8.65,"Y_Min":-8.42,"Pic_name":"Health/Central/HCs/Woitape/","Field28":" ","Reported":0,"NHISCases":100,"BldRes5km":202,"BldOth5km":3,"BldRes10km":522,"BldOth10km":6,"BldRes15km":1724,"BldOth15km":64,"BldRes20km":3456,"BldOth20km":83,"BldRes30km":5990,"BldOth30km":101},"geometry":{"type":"Point","coordinates":[147.250590000128454,-8.543180000156838]}},
{"type":"Feature","properties":{"fid":11,"OBJECTID":75,"HCDESC":"Yongai SC","PROVINCE":3,"DISTRICT":302,"HFCODE":30206,"Contact":"Antoniette Ile","Designatio":"CHW","Phone_No":" ","New_XY":1,"TYPE":3,"AGENCY":2,"STATUS":1,"MO":0,"HEO":0,"NO":0,"CHW":4,"APOST":0,"TOTAL_MED_":4,"NO_DEPENDE":0,"LAT":" ","LONG":" ","X_new":147.46,"X_Max":147.58,"X_Min":147.34,"Y_new":-8.53,"Y_Max":-8.64,"Y_Min":-8.41,"Pic_name":"Health/Central/HCs/Yongai/","Field28":" ","Reported":0,"NHISCases":100,"BldRes5km":721,"BldOth5km":8,"BldRes10km":1142,"BldOth10km":9,"BldRes15km":1276,"BldOth15km":9,"BldRes20km":1531,"BldOth20km":11,"BldRes30km":2767,"BldOth30km":26},"geometry":{"type":"Point","coordinates":[147.465420000133008,-8.530089999953475]}},
{"type":"Feature","properties":{"fid":12,"OBJECTID":76,"HCDESC":"Tororo SC","PROVINCE":3,"DISTRICT":302,"HFCODE":30207,"Contact":"Terrence Oa","Designatio":"OIC","Phone_No":"725 32 841","New_XY":1,"TYPE":3,"AGENCY":2,"STATUS":1,"MO":0,"HEO":0,"NO":1,"CHW":0,"APOST":0,"TOTAL_MED_":1,"NO_DEPENDE":0,"LAT":" ","LONG":" ","X_new":146.92,"X_Max":147.04,"X_Min":146.81,"Y_new":-8.25,"Y_Max":-8.36,"Y_Min":-8.13,"Pic_name":"Health/Central/HCs/Tororo/","Field28":" ","Reported":1,"NHISCases":100,"BldRes5km":238,"BldOth5km":1,"BldRes10km":587,"BldOth10km":1,"BldRes15km":1530,"BldOth15km":21,"BldRes20km":2447,"BldOth20km":28,"BldRes30km":4457,"BldOth30km":48},"geometry":{"type":"Point","coordinates":[146.929389999748764,-8.25181999989303]}},
{"type":"Feature","properties":{"fid":13,"OBJECTID":77,"HCDESC":"Yulai SC","PROVINCE":3,"DISTRICT":302,"HFCODE":30208,"Contact":"Titus Heg","Designatio":"CHW","Phone_No":"329 9277","New_XY":1,"TYPE":3,"AGENCY":2,"STATUS":1,"MO":1,"HEO":0,"NO":0,"CHW":1,"APOST":0,"TOTAL_MED_":2,"NO_DEPENDE":0,"LAT":" ","LONG":" ","X_new":147.13,"X_Max":147.24,"X_Min":147.01,"Y_new":-8.56,"Y_Max":-8.67,"Y_Min":-8.44,"Pic_name":"Health/Central/HCs/Yulai/","Field28":" ","Reported":0,"NHISCases":100,"BldRes5km":1019,"BldOth5km":54,"BldRes10km":1796,"BldOth10km":63,"BldRes15km":2522,"BldOth15km":70,"BldRes20km":3507,"BldOth20km":80,"BldRes30km":5520,"BldOth30km":111},"geometry":{"type":"Point","coordinates":[147.132120000237933,-8.560520000297743]}},
{"type":"Feature","properties":{"fid":14,"OBJECTID":78,"HCDESC":"Agevairu SC","PROVINCE":3,"DISTRICT":303,"HFCODE":30301,"Contact":"Donato Ken","Designatio":"OIC","Phone_No":" ","New_XY":1,"TYPE":3,"AGENCY":1,"STATUS":1,"MO":0,"HEO":1,"NO":0,"CHW":2,"APOST":0,"TOTAL_MED_":3,"NO_DEPENDE":3,"LAT":" ","LONG":" ","X_new":146.81,"X_Max":146.93,"X_Min":146.69,"Y_new":-9.01,"Y_Max":-9.13,"Y_Min":-8.9,"Pic_name":"Health/Central/HCs/Agevairu/","Field28":" ","Reported":1,"NHISCases":100,"BldRes5km":646,"BldOth5km":29,"BldRes10km":1586,"BldOth10km":41,"BldRes15km":1901,"BldOth15km":46,"BldRes20km":2689,"BldOth20km":121,"BldRes30km":3594,"BldOth30km":153},"geometry":{"type":"Point","coordinates":[146.814349999752721,-9.017320000017946]}},
{"type":"Feature","properties":{"fid":15,"OBJECTID":79,"HCDESC":"Akufa SC","PROVINCE":3,"DISTRICT":303,"HFCODE":30302,"Contact":"Polyn Dean","Designatio":"RNO","Phone_No":"723 66408","New_XY":1,"TYPE":3,"AGENCY":2,"STATUS":1,"MO":0,"HEO":0,"NO":0,"CHW":3,"APOST":0,"TOTAL_MED_":3,"NO_DEPENDE":0,"LAT":" ","LONG":" ","X_new":146.5,"X_Max":146.62,"X_Min":146.38,"Y_new":-8.38,"Y_Max":-8.5,"Y_Min":-8.27,"Pic_name":"Health/Central/HCs/Akufa/","Field28":" ","Reported":1,"NHISCases":100,"BldRes5km":766,"BldOth5km":28,"BldRes10km":1305,"BldOth10km":42,"BldRes15km":1727,"BldOth15km":51,"BldRes20km":4130,"BldOth20km":120,"BldRes30km":10584,"BldOth30km":338},"geometry":{"type":"Point","coordinates":[146.504230000414282,-8.388349999852551]}},
{"type":"Feature","properties":{"fid":16,"OBJECTID":80,"HCDESC":"Bakoiudu SC","PROVINCE":3,"DISTRICT":303,"HFCODE":30303,"Contact":"Opung Woiang","Designatio":"RNO","Phone_No":"735 46898","New_XY":1,"TYPE":3,"AGENCY":2,"STATUS":1,"MO":0,"HEO":0,"NO":1,"CHW":3,"APOST":0,"TOTAL_MED_":4,"NO_DEPENDE":0,"LAT":" ","LONG":" ","X_new":146.82,"X_Max":146.94,"X_Min":146.7,"Y_new":-8.62,"Y_Max":-8.73,"Y_Min":-8.5,"Pic_name":"Health/Central/HCs/Bakoiudu/","Field28":" ","Reported":1,"NHISCases":100,"BldRes5km":420,"BldOth5km":14,"BldRes10km":540,"BldOth10km":15,"BldRes15km":741,"BldOth15km":37,"BldRes20km":876,"BldOth20km":43,"BldRes30km":6382,"BldOth30km":177},"geometry":{"type":"Point","coordinates":[146.823333000317803,-8.621111000272379]}},
{"type":"Feature","properties":{"fid":17,"OBJECTID":81,"HCDESC":"Bereina HC","PROVINCE":3,"DISTRICT":303,"HFCODE":30304,"Contact":"Christopher Arua","Designatio":"CHW","Phone_No":"716 06467","New_XY":1,"TYPE":1,"AGENCY":1,"STATUS":1,"MO":0,"HEO":1,"NO":0,"CHW":19,"APOST":0,"TOTAL_MED_":20,"NO_DEPENDE":5,"LAT":" ","LONG":" ","X_new":146.5,"X_Max":146.62,"X_Min":146.38,"Y_new":-8.63,"Y_Max":-8.75,"Y_Min":-8.51,"Pic_name":"Health/Central/HCs/Bereina/","Field28":" ","Reported":1,"NHISCases":100,"BldRes5km":798,"BldOth5km":62,"BldRes10km":4691,"BldOth10km":167,"BldRes15km":7715,"BldOth15km":253,"BldRes20km":9100,"BldOth20km":292,"BldRes30km":11656,"BldOth30km":425},"geometry":{"type":"Point","coordinates":[146.506943999665964,-8.633611000247413]}},
{"type":"Feature","properties":{"fid":18,"OBJECTID":82,"HCDESC":"Efogi SC","PROVINCE":3,"DISTRICT":303,"HFCODE":30305,"Contact":"Mathew Efi","Designatio":"OIC","Phone_No":"734 70808","New_XY":1,"TYPE":3,"AGENCY":1,"STATUS":1,"MO":0,"HEO":0,"NO":0,"CHW":0,"APOST":0,"TOTAL_MED_":0,"NO_DEPENDE":4,"LAT":" ","LONG":" ","X_new":147.66,"X_Max":147.77,"X_Min":147.54,"Y_new":-9.15,"Y_Max":-9.27,"Y_Min":-9.04,"Pic_name":"Health/Central/HCs/Efogi/","Field28":" ","Reported":0,"NHISCases":100,"BldRes5km":606,"BldOth5km":30,"BldRes10km":904,"BldOth10km":38,"BldRes15km":1059,"BldOth15km":51,"BldRes20km":1174,"BldOth20km":51,"BldRes30km":2146,"BldOth30km":58},"geometry":{"type":"Point","coordinates":[147.66096999956585,-9.157250000287263]}},
{"type":"Feature","properties":{"fid":19,"OBJECTID":83,"HCDESC":"Goldie SC","PROVINCE":3,"DISTRICT":303,"HFCODE":30306,"Contact":"Sr. Ekenaila Thomas","Designatio":"NO","Phone_No":"767 90198","New_XY":1,"TYPE":3,"AGENCY":3,"STATUS":1,"MO":0,"HEO":0,"NO":2,"CHW":3,"APOST":0,"TOTAL_MED_":5,"NO_DEPENDE":0,"LAT":" ","LONG":" ","X_new":147.27,"X_Max":147.39,"X_Min":147.15,"Y_new":-9.34,"Y_Max":-9.46,"Y_Min":-9.23,"Pic_name":"Health/Central/HCs/Goldie/","Field28":" ","Reported":0,"NHISCases":100,"BldRes5km":271,"BldOth5km":8,"BldRes10km":9059,"BldOth10km":34,"BldRes15km":34108,"BldOth15km":68,"BldRes20km":57228,"BldOth20km":174,"BldRes30km":60831,"BldOth30km":461},"geometry":{"type":"Point","coordinates":[147.273907999854373,-9.348800999666366]}},
{"type":"Feature","properties":{"fid":20,"OBJECTID":84,"HCDESC":"Inawaia SC","PROVINCE":3,"DISTRICT":303,"HFCODE":30307,"Contact":" ","Designatio":"RNO","Phone_No":"732 66408","New_XY":1,"TYPE":3,"AGENCY":2,"STATUS":1,"MO":0,"HEO":0,"NO":2,"CHW":10,"APOST":0,"TOTAL_MED_":12,"NO_DEPENDE":0,"LAT":" ","LONG":" ","X_new":146.57,"X_Max":146.69,"X_Min":146.46,"Y_new":-8.62,"Y_Max":-8.74,"Y_Min":-8.51,"Pic_name":"Health/Central/HCs/Inawaia/","Field28":" ","Reported":1,"NHISCases":100,"BldRes5km":1616,"BldOth5km":46,"BldRes10km":4684,"BldOth10km":179,"BldRes15km":7793,"BldOth15km":270,"BldRes20km":9220,"BldOth20km":302,"BldRes30km":12067,"BldOth30km":440},"geometry":{"type":"Point","coordinates":[146.579400000010082,-8.629570000055423]}},
{"type":"Feature","properties":{"fid":21,"OBJECTID":86,"HCDESC":"Sogeri SC","PROVINCE":3,"DISTRICT":303,"HFCODE":30309,"Contact":"Sr. Cecilia Valamb","Designatio":" ","Phone_No":" ","New_XY":1,"TYPE":3,"AGENCY":1,"STATUS":1,"MO":0,"HEO":0,"NO":3,"CHW":2,"APOST":0,"TOTAL_MED_":5,"NO_DEPENDE":6,"LAT":" ","LONG":" ","X_new":147.41,"X_Max":147.53,"X_Min":147.3,"Y_new":-9.42,"Y_Max":-9.53,"Y_Min":-9.3,"Pic_name":"Health/Central/HCs/Sogeri/","Field28":" ","Reported":0,"NHISCases":100,"BldRes5km":444,"BldOth5km":92,"BldRes10km":926,"BldOth10km":137,"BldRes15km":1464,"BldOth15km":185,"BldRes20km":6096,"BldOth20km":218,"BldRes30km":58416,"BldOth30km":282},"geometry":{"type":"Point","coordinates":[147.418330000429251,-9.421859999938988]}},
{"type":"Feature","properties":{"fid":22,"OBJECTID":87,"HCDESC":"Veifa'a HC","PROVINCE":3,"DISTRICT":303,"HFCODE":30310,"Contact":"Rock Ofoi","Designatio":"CHW","Phone_No":"712 57772","New_XY":1,"TYPE":1,"AGENCY":2,"STATUS":1,"MO":0,"HEO":0,"NO":9,"CHW":14,"APOST":0,"TOTAL_MED_":23,"NO_DEPENDE":6,"LAT":" ","LONG":" ","X_new":146.56,"X_Max":146.67,"X_Min":146.44,"Y_new":-8.54,"Y_Max":-8.65,"Y_Min":-8.42,"Pic_name":"Health/Central/HCs/Veifaa/","Field28":" ","Reported":1,"NHISCases":100,"BldRes5km":2265,"BldOth5km":75,"BldRes10km":3659,"BldOth10km":101,"BldRes15km":6230,"BldOth15km":214,"BldRes20km":9849,"BldOth20km":307,"BldRes30km":12019,"BldOth30km":387},"geometry":{"type":"Point","coordinates":[146.560832999943045,-8.541389000302104]}},
{"type":"Feature","properties":{"fid":23,"OBJECTID":88,"HCDESC":"Waima SC","PROVINCE":3,"DISTRICT":303,"HFCODE":30311,"Contact":"Sr. Jacinta Oa","Designatio":"SIC","Phone_No":" ","New_XY":1,"TYPE":3,"AGENCY":2,"STATUS":1,"MO":0,"HEO":0,"NO":0,"CHW":2,"APOST":0,"TOTAL_MED_":2,"NO_DEPENDE":0,"LAT":" ","LONG":" ","X_new":146.45,"X_Max":146.57,"X_Min":146.33,"Y_new":-8.62,"Y_Max":-8.74,"Y_Min":-8.51,"Pic_name":"Health/Central/HCs/Waima/","Field28":" ","Reported":0,"NHISCases":100,"BldRes5km":1088,"BldOth5km":29,"BldRes10km":2582,"BldOth10km":107,"BldRes15km":6136,"BldOth15km":195,"BldRes20km":8023,"BldOth20km":257,"BldRes30km":11379,"BldOth30km":402},"geometry":{"type":"Point","coordinates":[146.455196000095384,-8.629215999918415]}},
{"type":"Feature","properties":{"fid":24,"OBJECTID":89,"HCDESC":"Yule Island SC","PROVINCE":3,"DISTRICT":303,"HFCODE":30312,"Contact":" ","Designatio":" ","Phone_No":" ","New_XY":1,"TYPE":3,"AGENCY":2,"STATUS":1,"MO":0,"HEO":0,"NO":0,"CHW":4,"APOST":0,"TOTAL_MED_":4,"NO_DEPENDE":0,"LAT":" ","LONG":" ","X_new":146.53,"X_Max":146.65,"X_Min":146.42,"Y_new":-8.83,"Y_Max":-8.94,"Y_Min":-8.71,"Pic_name":"Health/Central/HCs/Yule_Island/","Field28":" ","Reported":1,"NHISCases":100,"BldRes5km":476,"BldOth5km":59,"BldRes10km":760,"BldOth10km":66,"BldRes15km":1615,"BldOth15km":104,"BldRes20km":3033,"BldOth20km":170,"BldRes30km":7436,"BldOth30km":310},"geometry":{"type":"Point","coordinates":[146.538470000190387,-8.833219999803077]}},
{"type":"Feature","properties":{"fid":25,"OBJECTID":90,"HCDESC":"Doa SC","PROVINCE":3,"DISTRICT":303,"HFCODE":30313,"Contact":"Margaret Paraha","Designatio":"RNO","Phone_No":"724 63658","New_XY":1,"TYPE":3,"AGENCY":1,"STATUS":1,"MO":0,"HEO":0,"NO":2,"CHW":2,"APOST":0,"TOTAL_MED_":4,"NO_DEPENDE":2,"LAT":" ","LONG":" ","X_new":146.95,"X_Max":147.06,"X_Min":146.83,"Y_new":-8.97,"Y_Max":-9.09,"Y_Min":-8.86,"Pic_name":"Health/Central/HCs/Doa/","Field28":" ","Reported":0,"NHISCases":100,"BldRes5km":597,"BldOth5km":59,"BldRes10km":933,"BldOth10km":78,"BldRes15km":1680,"BldOth15km":98,"BldRes20km":2621,"BldOth20km":136,"BldRes30km":4124,"BldOth30km":185},"geometry":{"type":"Point","coordinates":[146.951648000055229,-8.977732000031722]}},
{"type":"Feature","properties":{"fid":26,"OBJECTID":91,"HCDESC":"Porebada SC","PROVINCE":3,"DISTRICT":303,"HFCODE":30314,"Contact":"Rosa Manai","Designatio":"CHW","Phone_No":" ","New_XY":1,"TYPE":3,"AGENCY":1,"STATUS":1,"MO":0,"HEO":0,"NO":0,"CHW":2,"APOST":0,"TOTAL_MED_":2,"NO_DEPENDE":1,"LAT":" ","LONG":" ","X_new":147.04,"X_Max":147.15,"X_Min":146.92,"Y_new":-9.41,"Y_Max":-9.53,"Y_Min":-9.3,"Pic_name":"Health/Central/HCs/Porebada/","Field28":" ","Reported":0,"NHISCases":100,"BldRes5km":1016,"BldOth5km":17,"BldRes10km":1674,"BldOth10km":207,"BldRes15km":16083,"BldOth15km":226,"BldRes20km":47633,"BldOth20km":238,"BldRes30km":58601,"BldOth30km":248},"geometry":{"type":"Point","coordinates":[147.041388999802621,-9.418611000297403]}},
{"type":"Feature","properties":{"fid":27,"OBJECTID":92,"HCDESC":"PAU SC","PROVINCE":3,"DISTRICT":303,"HFCODE":30315,"Contact":" ","Designatio":"SIC","Phone_No":"328 0276","New_XY":1,"TYPE":3,"AGENCY":2,"STATUS":1,"MO":0,"HEO":0,"NO":3,"CHW":1,"APOST":0,"TOTAL_MED_":4,"NO_DEPENDE":0,"LAT":" ","LONG":" ","X_new":147.27,"X_Max":147.39,"X_Min":147.15,"Y_new":-9.4,"Y_Max":-9.52,"Y_Min":-9.28,"Pic_name":"Health/Central/HCs/PAU/","Field28":" ","Reported":0,"NHISCases":100,"BldRes5km":4430,"BldOth5km":13,"BldRes10km":23110,"BldOth10km":59,"BldRes15km":54930,"BldOth15km":86,"BldRes20km":57975,"BldOth20km":180,"BldRes30km":60889,"BldOth30km":461},"geometry":{"type":"Point","coordinates":[147.274489999713751,-9.403403999594843]}},
{"type":"Feature","properties":{"fid":28,"OBJECTID":93,"HCDESC":"Kuriva SC","PROVINCE":3,"DISTRICT":303,"HFCODE":30316,"Contact":"Aloysius K./Dorothy","Designatio":"CHW","Phone_No":"722 99931","New_XY":1,"TYPE":3,"AGENCY":1,"STATUS":1,"MO":0,"HEO":0,"NO":2,"CHW":2,"APOST":0,"TOTAL_MED_":4,"NO_DEPENDE":0,"LAT":" ","LONG":" ","X_new":147.11,"X_Max":147.23,"X_Min":146.99,"Y_new":-9.06,"Y_Max":-9.18,"Y_Min":-8.95,"Pic_name":"Health/Central/HCs/Kuriva/","Field28":" ","Reported":0,"NHISCases":100,"BldRes5km":518,"BldOth5km":11,"BldRes10km":1139,"BldOth10km":50,"BldRes15km":1471,"BldOth15km":58,"BldRes20km":1886,"BldOth20km":75,"BldRes30km":4330,"BldOth30km":187},"geometry":{"type":"Point","coordinates":[147.114869999750795,-9.067910000146355]}},
{"type":"Feature","properties":{"fid":29,"OBJECTID":94,"HCDESC":"Laloki Hospital","PROVINCE":3,"DISTRICT":303,"HFCODE":30317,"Contact":"Venona Homboga","Designatio":"CHW","Phone_No":"323 4978","New_XY":1,"TYPE":2,"AGENCY":1,"STATUS":1,"MO":3,"HEO":2,"NO":13,"CHW":23,"APOST":0,"TOTAL_MED_":41,"NO_DEPENDE":0,"LAT":" ","LONG":" ","X_new":147.22,"X_Max":147.34,"X_Min":147.1,"Y_new":-9.36,"Y_Max":-9.47,"Y_Min":-9.24,"Pic_name":"Health/Central/HCs/Laloki/","Field28":" ","Reported":0,"NHISCases":100,"BldRes5km":4681,"BldOth5km":0,"BldRes10km":29748,"BldOth10km":9,"BldRes15km":53619,"BldOth15km":37,"BldRes20km":57410,"BldOth20km":89,"BldRes30km":61120,"BldOth30km":465},"geometry":{"type":"Point","coordinates":[147.225350999948773,-9.36292599993493]}},
{"type":"Feature","properties":{"fid":30,"OBJECTID":95,"HCDESC":"Tubusereia SC","PROVINCE":3,"DISTRICT":303,"HFCODE":30318,"Contact":"Sr. Elizabeth Ranu","Designatio":"NO","Phone_No":" ","New_XY":1,"TYPE":3,"AGENCY":3,"STATUS":1,"MO":0,"HEO":0,"NO":0,"CHW":0,"APOST":0,"TOTAL_MED_":0,"NO_DEPENDE":0,"LAT":" ","LONG":" ","X_new":147.32,"X_Max":147.44,"X_Min":147.2,"Y_new":-9.55,"Y_Max":-9.66,"Y_Min":-9.43,"Pic_name":"Health/Central/HCs/Tubusereia/","Field28":" ","Reported":0,"NHISCases":100,"BldRes5km":613,"BldOth5km":23,"BldRes10km":1783,"BldOth10km":50,"BldRes15km":5091,"BldOth15km":63,"BldRes20km":36582,"BldOth20km":205,"BldRes30km":59648,"BldOth30km":250},"geometry":{"type":"Point","coordinates":[147.324959999704333,-9.550139999861074]}},
{"type":"Feature","properties":{"fid":31,"OBJECTID":96,"HCDESC":"Papa SC","PROVINCE":3,"DISTRICT":303,"HFCODE":30319,"Contact":"Nathan Susuve","Designatio":"HEO","Phone_No":"725 30414","New_XY":1,"TYPE":3,"AGENCY":1,"STATUS":1,"MO":0,"HEO":0,"NO":0,"CHW":0,"APOST":0,"TOTAL_MED_":0,"NO_DEPENDE":0,"LAT":" ","LONG":" ","X_new":147.0,"X_Max":147.12,"X_Min":146.88,"Y_new":-9.3,"Y_Max":-9.42,"Y_Min":-9.18,"Pic_name":"Health/Central/HCs/Papa/","Field28":" ","Reported":0,"NHISCases":100,"BldRes5km":555,"BldOth5km":207,"BldRes10km":833,"BldOth10km":238,"BldRes15km":1787,"BldOth15km":240,"BldRes20km":6711,"BldOth20km":240,"BldRes30km":56700,"BldOth30km":289},"geometry":{"type":"Point","coordinates":[147.004444000290391,-9.306667000081916]}},
{"type":"Feature","properties":{"fid":32,"OBJECTID":97,"HCDESC":"Boku SC","PROVINCE":3,"DISTRICT":304,"HFCODE":30401,"Contact":"Enlo Kevin","Designatio":"CHW","Phone_No":" ","New_XY":1,"TYPE":3,"AGENCY":1,"STATUS":1,"MO":0,"HEO":0,"NO":0,"CHW":1,"APOST":0,"TOTAL_MED_":1,"NO_DEPENDE":1,"LAT":" ","LONG":" ","X_new":147.89,"X_Max":148.01,"X_Min":147.78,"Y_new":-9.72,"Y_Max":-9.83,"Y_Min":-9.6,"Pic_name":"Health/Central/HCs/Boku/","Field28":" ","Reported":1,"NHISCases":100,"BldRes5km":459,"BldOth5km":11,"BldRes10km":915,"BldOth10km":22,"BldRes15km":1552,"BldOth15km":31,"BldRes20km":2998,"BldOth20km":69,"BldRes30km":5648,"BldOth30km":230},"geometry":{"type":"Point","coordinates":[147.899310000056516,-9.721020000172814]}},
{"type":"Feature","properties":{"fid":33,"OBJECTID":98,"HCDESC":"Dorobisoro SC","PROVINCE":3,"DISTRICT":304,"HFCODE":30402,"Contact":"Kauka Sibide","Designatio":"OIC","Phone_No":" ","New_XY":1,"TYPE":3,"AGENCY":1,"STATUS":1,"MO":0,"HEO":0,"NO":0,"CHW":1,"APOST":0,"TOTAL_MED_":1,"NO_DEPENDE":0,"LAT":" ","LONG":" ","X_new":147.9228,"X_Max":148.040195,"X_Min":147.805405,"Y_new":-9.46107,"Y_Max":-9.577802,"Y_Min":-9.344338,"Pic_name":"Health/Central/HCs/Dorobisoro/","Field28":" ","Reported":0,"NHISCases":100,"BldRes5km":499,"BldOth5km":5,"BldRes10km":743,"BldOth10km":16,"BldRes15km":848,"BldOth15km":18,"BldRes20km":923,"BldOth20km":19,"BldRes30km":2081,"BldOth30km":40},"geometry":{"type":"Point","coordinates":[147.922799999620338,-9.461069999580786]}},
{"type":"Feature","properties":{"fid":34,"OBJECTID":99,"HCDESC":"Hula SC","PROVINCE":3,"DISTRICT":304,"HFCODE":30403,"Contact":"Loani Vanua","Designatio":"CHW","Phone_No":"722 67394","New_XY":1,"TYPE":3,"AGENCY":2,"STATUS":1,"MO":0,"HEO":0,"NO":2,"CHW":3,"APOST":0,"TOTAL_MED_":5,"NO_DEPENDE":2,"LAT":" ","LONG":" ","X_new":147.72,"X_Max":147.84,"X_Min":147.6,"Y_new":-10.1,"Y_Max":-10.21,"Y_Min":-9.98,"Pic_name":"Health/Central/HCs/Hula/","Field28":" ","Reported":0,"NHISCases":100,"BldRes5km":842,"BldOth5km":21,"BldRes10km":1550,"BldOth10km":39,"BldRes15km":2100,"BldOth15km":64,"BldRes20km":2714,"BldOth20km":93,"BldRes30km":4208,"BldOth30km":155},"geometry":{"type":"Point","coordinates":[147.72536000026389,-10.101750000162326]}},
{"type":"Feature","properties":{"fid":35,"OBJECTID":100,"HCDESC":"Kak SC","PROVINCE":3,"DISTRICT":304,"HFCODE":30404,"Contact":"Priscilla Miau","Designatio":"CHW","Phone_No":"734 49585","New_XY":1,"TYPE":3,"AGENCY":2,"STATUS":1,"MO":0,"HEO":0,"NO":0,"CHW":1,"APOST":0,"TOTAL_MED_":1,"NO_DEPENDE":0,"LAT":" ","LONG":" ","X_new":147.85,"X_Max":147.97,"X_Min":147.74,"Y_new":-10.09,"Y_Max":-10.21,"Y_Min":-9.98,"Pic_name":"Health/Central/HCs/Kak/","Field28":" ","Reported":1,"NHISCases":100,"BldRes5km":323,"BldOth5km":15,"BldRes10km":542,"BldOth10km":21,"BldRes15km":1786,"BldOth15km":51,"BldRes20km":3574,"BldOth20km":99,"BldRes30km":5773,"BldOth30km":176},"geometry":{"type":"Point","coordinates":[147.859450000117477,-10.098100000014938]}},
{"type":"Feature","properties":{"fid":36,"OBJECTID":101,"HCDESC":"Kwikila HC","PROVINCE":3,"DISTRICT":304,"HFCODE":30405,"Contact":"Richard Oreke","Designatio":"OIC","Phone_No":"733 68288","New_XY":1,"TYPE":1,"AGENCY":1,"STATUS":1,"MO":0,"HEO":2,"NO":4,"CHW":15,"APOST":0,"TOTAL_MED_":21,"NO_DEPENDE":18,"LAT":" ","LONG":" ","X_new":147.67,"X_Max":147.79,"X_Min":147.55,"Y_new":-9.8,"Y_Max":-9.92,"Y_Min":-9.69,"Pic_name":"Health/Central/HCs/Kwikila/","Field28":" ","Reported":1,"NHISCases":100,"BldRes5km":312,"BldOth5km":71,"BldRes10km":1563,"BldOth10km":107,"BldRes15km":3030,"BldOth15km":168,"BldRes20km":4602,"BldOth20km":220,"BldRes30km":7368,"BldOth30km":295},"geometry":{"type":"Point","coordinates":[147.674159999884182,-9.806960000003926]}},
{"type":"Feature","properties":{"fid":37,"OBJECTID":102,"HCDESC":"Boregaina SC","PROVINCE":3,"DISTRICT":304,"HFCODE":30406,"Contact":"Sr. Pinie","Designatio":"RNO","Phone_No":"720 64130","New_XY":1,"TYPE":3,"AGENCY":2,"STATUS":1,"MO":0,"HEO":0,"NO":0,"CHW":0,"APOST":0,"TOTAL_MED_":0,"NO_DEPENDE":4,"LAT":" ","LONG":" ","X_new":147.74,"X_Max":147.86,"X_Min":147.62,"Y_new":-9.76,"Y_Max":-9.88,"Y_Min":-9.65,"Pic_name":"Health/Central/HCs/Boregaina/","Field28":" ","Reported":1,"NHISCases":100,"BldRes5km":550,"BldOth5km":15,"BldRes10km":1446,"BldOth10km":101,"BldRes15km":2410,"BldOth15km":139,"BldRes20km":3824,"BldOth20km":189,"BldRes30km":6908,"BldOth30km":281},"geometry":{"type":"Point","coordinates":[147.743879999962132,-9.767309999856536]}},
{"type":"Feature","properties":{"fid":38,"OBJECTID":103,"HCDESC":"Kokorogoro SC","PROVINCE":3,"DISTRICT":304,"HFCODE":30407,"Contact":"Michael Kirimu","Designatio":"CHW","Phone_No":"716 82862","New_XY":1,"TYPE":3,"AGENCY":2,"STATUS":1,"MO":0,"HEO":0,"NO":0,"CHW":0,"APOST":0,"TOTAL_MED_":0,"NO_DEPENDE":0,"LAT":" ","LONG":" ","X_new":147.8,"X_Max":147.92,"X_Min":147.69,"Y_new":-9.69,"Y_Max":-9.81,"Y_Min":-9.57,"Pic_name":"Health/Central/HCs/Kokorogoro/","Field28":" ","Reported":1,"NHISCases":100,"BldRes5km":309,"BldOth5km":5,"BldRes10km":1141,"BldOth10km":24,"BldRes15km":2067,"BldOth15km":52,"BldRes20km":3107,"BldOth20km":155,"BldRes30km":5774,"BldOth30km":231},"geometry":{"type":"Point","coordinates":[147.807600000339789,-9.693520000047897]}},
{"type":"Feature","properties":{"fid":39,"OBJECTID":166,"HCDESC":"Afore HC","PROVINCE":6,"DISTRICT":601,"HFCODE":60101,"Contact":"Alphaeus Utari","Designatio":"CHW","Phone_No":"7351 8491","New_XY":1,"TYPE":1,"AGENCY":1,"STATUS":1,"MO":0,"HEO":1,"NO":1,"CHW":5,"APOST":1,"TOTAL_MED_":8,"NO_DEPENDE":4,"LAT":" ","LONG":" ","X_new":148.38,"X_Max":148.5,"X_Min":148.26,"Y_new":-9.14,"Y_Max":-9.25,"Y_Min":-9.02,"Pic_name":"Health/Oro/HCs/Afore/","Field28":" ","Reported":0,"NHISCases":100,"BldRes5km":534,"BldOth5km":16,"BldRes10km":2164,"BldOth10km":44,"BldRes15km":4437,"BldOth15km":85,"BldRes20km":5660,"BldOth20km":108,"BldRes30km":8231,"BldOth30km":200},"geometry":{"type":"Point","coordinates":[148.386299999845164,-9.141530000209286]}},
{"type":"Feature","properties":{"fid":40,"OBJECTID":167,"HCDESC":"Ako SC","PROVINCE":6,"DISTRICT":601,"HFCODE":60102,"Contact":"Penny Asa","Designatio":"CHW","Phone_No":"7389 0415","New_XY":1,"TYPE":3,"AGENCY":1,"STATUS":1,"MO":0,"HEO":0,"NO":1,"CHW":1,"APOST":1,"TOTAL_MED_":3,"NO_DEPENDE":2,"LAT":" ","LONG":" ","X_new":149.05,"X_Max":149.17,"X_Min":148.93,"Y_new":-9.05,"Y_Max":-9.16,"Y_Min":-8.93,"Pic_name":"Health/Oro/HCs/Ako/","Field28":" ","Reported":0,"NHISCases":100,"BldRes5km":175,"BldOth5km":5,"BldRes10km":562,"BldOth10km":16,"BldRes15km":825,"BldOth15km":25,"BldRes20km":1043,"BldOth20km":28,"BldRes30km":3062,"BldOth30km":89},"geometry":{"type":"Point","coordinates":[149.057273999895301,-9.052437999813776]}},
{"type":"Feature","properties":{"fid":41,"OBJECTID":168,"HCDESC":"Ambasi SC","PROVINCE":6,"DISTRICT":601,"HFCODE":60103,"Contact":"Stephen Bairam","Designatio":"OIC","Phone_No":"7148 1168","New_XY":1,"TYPE":3,"AGENCY":1,"STATUS":1,"MO":0,"HEO":0,"NO":0,"CHW":3,"APOST":2,"TOTAL_MED_":5,"NO_DEPENDE":2,"LAT":" ","LONG":" ","X_new":148.19,"X_Max":148.3,"X_Min":148.07,"Y_new":-8.26,"Y_Max":-8.38,"Y_Min":-8.15,"Pic_name":"Health/Oro/HCs/Ambasi/","Field28":" ","Reported":0,"NHISCases":100,"BldRes5km":511,"BldOth5km":12,"BldRes10km":1072,"BldOth10km":26,"BldRes15km":1209,"BldOth15km":27,"BldRes20km":1368,"BldOth20km":32,"BldRes30km":2100,"BldOth30km":52},"geometry":{"type":"Point","coordinates":[148.192540000220902,-8.269220000102848]}},
{"type":"Feature","properties":{"fid":42,"OBJECTID":169,"HCDESC":"Gona SC","PROVINCE":6,"DISTRICT":601,"HFCODE":60104,"Contact":"Joycelyn Nawir","Designatio":"NO","Phone_No":" ","New_XY":1,"TYPE":3,"AGENCY":2,"STATUS":1,"MO":0,"HEO":0,"NO":2,"CHW":5,"APOST":2,"TOTAL_MED_":9,"NO_DEPENDE":2,"LAT":" ","LONG":" ","X_new":148.28,"X_Max":148.4,"X_Min":148.17,"Y_new":-8.61,"Y_Max":-8.73,"Y_Min":-8.5,"Pic_name":"Health/Oro/HCs/Gona/","Field28":" ","Reported":0,"NHISCases":100,"BldRes5km":996,"BldOth5km":24,"BldRes10km":2491,"BldOth10km":39,"BldRes15km":5304,"BldOth15km":148,"BldRes20km":10987,"BldOth20km":611,"BldRes30km":19719,"BldOth30km":816},"geometry":{"type":"Point","coordinates":[148.289894000307982,-8.619480999748305]}},
{"type":"Feature","properties":{"fid":43,"OBJECTID":170,"HCDESC":"Itokama SC","PROVINCE":6,"DISTRICT":601,"HFCODE":60105,"Contact":"Mr Jonah Mambe","Designatio":" ","Phone_No":"7287 1084","New_XY":1,"TYPE":3,"AGENCY":1,"STATUS":1,"MO":0,"HEO":0,"NO":1,"CHW":3,"APOST":1,"TOTAL_MED_":5,"NO_DEPENDE":2,"LAT":" ","LONG":" ","X_new":148.26,"X_Max":148.38,"X_Min":148.14,"Y_new":-9.19,"Y_Max":-9.31,"Y_Min":-9.08,"Pic_name":"Health/Oro/HCs/Itokama/","Field28":" ","Reported":0,"NHISCases":100,"BldRes5km":842,"BldOth5km":13,"BldRes10km":1688,"BldOth10km":22,"BldRes15km":2496,"BldOth15km":38,"BldRes20km":4432,"BldOth20km":86,"BldRes30km":6874,"BldOth30km":129},"geometry":{"type":"Point","coordinates":[148.263160999580577,-9.197270000410128]}},
{"type":"Feature","properties":{"fid":44,"OBJECTID":171,"HCDESC":"Oro Bay HC","PROVINCE":6,"DISTRICT":601,"HFCODE":60106,"Contact":"Sr Mildred Laksen","Designatio":"NO","Phone_No":"7223 6697","New_XY":1,"TYPE":1,"AGENCY":2,"STATUS":1,"MO":0,"HEO":0,"NO":4,"CHW":7,"APOST":11,"TOTAL_MED_":22,"NO_DEPENDE":9,"LAT":" ","LONG":" ","X_new":148.48,"X_Max":148.6,"X_Min":148.36,"Y_new":-8.89,"Y_Max":-9.0,"Y_Min":-8.77,"Pic_name":"Health/Oro/HCs/Oro_Bay/","Field28":" ","Reported":0,"NHISCases":100,"BldRes5km":1010,"BldOth5km":52,"BldRes10km":2103,"BldOth10km":116,"BldRes15km":2985,"BldOth15km":134,"BldRes20km":4262,"BldOth20km":158,"BldRes30km":10777,"BldOth30km":286},"geometry":{"type":"Point","coordinates":[148.484328999583681,-8.891814000315833]}},
{"type":"Feature","properties":{"fid":45,"OBJECTID":172,"HCDESC":"Popondetta HO","PROVINCE":6,"DISTRICT":601,"HFCODE":60107,"Contact":" ","Designatio":" ","Phone_No":" ","New_XY":1,"TYPE":2,"AGENCY":1,"STATUS":1,"MO":0,"HEO":0,"NO":0,"CHW":0,"APOST":0,"TOTAL_MED_":0,"NO_DEPENDE":0,"LAT":" ","LONG":" ","X_new":148.23,"X_Max":148.35,"X_Min":148.12,"Y_new":-8.76,"Y_Max":-8.87,"Y_Min":-8.64,"Pic_name":"Health/Oro/HCs/Popondetta_HO/","Field28":" ","Reported":0,"NHISCases":100,"BldRes5km":4094,"BldOth5km":461,"BldRes10km":8470,"BldOth10km":613,"BldRes15km":13140,"BldOth15km":649,"BldRes20km":19748,"BldOth20km":772,"BldRes30km":30136,"BldOth30km":947},"geometry":{"type":"Point","coordinates":[148.238993000226856,-8.763204999610991]}},
{"type":"Feature","properties":{"fid":46,"OBJECTID":173,"HCDESC":"Popondetta UC","PROVINCE":6,"DISTRICT":601,"HFCODE":60108,"Contact":"Lillymaud Repo","Designatio":"HEO","Phone_No":"7330 2680","New_XY":1,"TYPE":4,"AGENCY":1,"STATUS":1,"MO":0,"HEO":0,"NO":5,"CHW":7,"APOST":0,"TOTAL_MED_":12,"NO_DEPENDE":12,"LAT":" ","LONG":" ","X_new":148.23,"X_Max":148.35,"X_Min":148.11,"Y_new":-8.76,"Y_Max":-8.88,"Y_Min":-8.65,"Pic_name":"Health/Oro/HCs/Popondetta_UC/","Field28":" ","Reported":0,"NHISCases":100,"BldRes5km":4145,"BldOth5km":474,"BldRes10km":8419,"BldOth10km":613,"BldRes15km":13044,"BldOth15km":649,"BldRes20km":20168,"BldOth20km":778,"BldRes30km":30363,"BldOth30km":949},"geometry":{"type":"Point","coordinates":[148.234113000014986,-8.769040999842218]}},
{"type":"Feature","properties":{"fid":47,"OBJECTID":174,"HCDESC":"Safia SC","PROVINCE":6,"DISTRICT":601,"HFCODE":60109,"Contact":"Leonard Bareji","Designatio":"Councillor","Phone_No":"7235 2040","New_XY":0,"TYPE":3,"AGENCY":1,"STATUS":1,"MO":0,"HEO":0,"NO":1,"CHW":0,"APOST":1,"TOTAL_MED_":2,"NO_DEPENDE":4,"LAT":" ","LONG":" ","X_new":148.638678,"X_Max":148.756073,"X_Min":148.521283,"Y_new":-9.5982,"Y_Max":-9.714932,"Y_Min":-9.481468,"Pic_name":"Health/Oro/HCs/Safia/","Field28":" ","Reported":0,"NHISCases":100,"BldRes5km":95,"BldOth5km":1,"BldRes10km":344,"BldOth10km":2,"BldRes15km":598,"BldOth15km":10,"BldRes20km":780,"BldOth20km":12,"BldRes30km":1217,"BldOth30km":20},"geometry":{"type":"Point","coordinates":[148.638678000189657,-9.598200000229781]}},
{"type":"Feature","properties":{"fid":48,"OBJECTID":175,"HCDESC":"Sakarina SC","PROVINCE":6,"DISTRICT":601,"HFCODE":60110,"Contact":"Bradley Gioleon","Designatio":"OIC","Phone_No":"7187 9845","New_XY":1,"TYPE":3,"AGENCY":2,"STATUS":1,"MO":0,"HEO":0,"NO":1,"CHW":3,"APOST":1,"TOTAL_MED_":5,"NO_DEPENDE":3,"LAT":" ","LONG":" ","X_new":148.36,"X_Max":148.48,"X_Min":148.25,"Y_new":-9.06,"Y_Max":-9.18,"Y_Min":-8.95,"Pic_name":"Health/Oro/HCs/Sakarina/","Field28":" ","Reported":0,"NHISCases":100,"BldRes5km":1235,"BldOth5km":31,"BldRes10km":2677,"BldOth10km":62,"BldRes15km":4069,"BldOth15km":76,"BldRes20km":6114,"BldOth20km":118,"BldRes30km":10347,"BldOth30km":280},"geometry":{"type":"Point","coordinates":[148.369339000094897,-9.067531999801929]}},
{"type":"Feature","properties":{"fid":49,"OBJECTID":176,"HCDESC":"Tufi HC","PROVINCE":6,"DISTRICT":601,"HFCODE":60111,"Contact":"Bevan Yaga","Designatio":"OIC","Phone_No":"7941 1296","New_XY":1,"TYPE":1,"AGENCY":1,"STATUS":1,"MO":0,"HEO":1,"NO":1,"CHW":3,"APOST":1,"TOTAL_MED_":6,"NO_DEPENDE":2,"LAT":" ","LONG":" ","X_new":149.32,"X_Max":149.44,"X_Min":149.2,"Y_new":-9.07,"Y_Max":-9.19,"Y_Min":-8.96,"Pic_name":"Health/Oro/HCs/Tufi/","Field28":" ","Reported":0,"NHISCases":100,"BldRes5km":519,"BldOth5km":24,"BldRes10km":1015,"BldOth10km":32,"BldRes15km":1513,"BldOth15km":40,"BldRes20km":1911,"BldOth20km":54,"BldRes30km":2747,"BldOth30km":77},"geometry":{"type":"Point","coordinates":[149.322651999889899,-9.078807999989181]}},
{"type":"Feature","properties":{"fid":50,"OBJECTID":177,"HCDESC":"Wanigela SC","PROVINCE":6,"DISTRICT":601,"HFCODE":60112,"Contact":"Beverly Sanana","Designatio":"CHW","Phone_No":" ","New_XY":1,"TYPE":3,"AGENCY":2,"STATUS":1,"MO":0,"HEO":0,"NO":1,"CHW":4,"APOST":0,"TOTAL_MED_":5,"NO_DEPENDE":2,"LAT":" ","LONG":" ","X_new":149.15,"X_Max":149.27,"X_Min":149.03,"Y_new":-9.33,"Y_Max":-9.45,"Y_Min":-9.22,"Pic_name":"Health/Oro/HCs/Wanigela/","Field28":" ","Reported":1,"NHISCases":100,"BldRes5km":674,"BldOth5km":17,"BldRes10km":1198,"BldOth10km":34,"BldRes15km":1532,"BldOth15km":39,"BldRes20km":1729,"BldOth20km":41,"BldRes30km":2882,"BldOth30km":61},"geometry":{"type":"Point","coordinates":[149.155430000094498,-9.338839999866082]}},
{"type":"Feature","properties":{"fid":51,"OBJECTID":178,"HCDESC":"Emo River SC","PROVINCE":6,"DISTRICT":602,"HFCODE":60201,"Contact":"Osborn Nana","Designatio":"CHW","Phone_No":" ","New_XY":1,"TYPE":3,"AGENCY":1,"STATUS":1,"MO":0,"HEO":0,"NO":1,"CHW":1,"APOST":0,"TOTAL_MED_":2,"NO_DEPENDE":1,"LAT":" ","LONG":" ","X_new":148.04,"X_Max":148.16,"X_Min":147.92,"Y_new":-9.12,"Y_Max":-9.24,"Y_Min":-9.0,"Pic_name":"Health/Oro/HCs/Emo_River/","Field28":" ","Reported":0,"NHISCases":100,"BldRes5km":462,"BldOth5km":15,"BldRes10km":1019,"BldOth10km":24,"BldRes15km":1086,"BldOth15km":24,"BldRes20km":1649,"BldOth20km":26,"BldRes30km":10032,"BldOth30km":133},"geometry":{"type":"Point","coordinates":[148.042846000242776,-9.123549000186188]}},
{"type":"Feature","properties":{"fid":52,"OBJECTID":179,"HCDESC":"Ioma SC","PROVINCE":6,"DISTRICT":602,"HFCODE":60202,"Contact":"Monica Bogino","Designatio":"CHW","Phone_No":" ","New_XY":1,"TYPE":3,"AGENCY":1,"STATUS":1,"MO":0,"HEO":1,"NO":0,"CHW":1,"APOST":1,"TOTAL_MED_":3,"NO_DEPENDE":3,"LAT":" ","LONG":" ","X_new":147.81,"X_Max":147.93,"X_Min":147.69,"Y_new":-8.36,"Y_Max":-8.48,"Y_Min":-8.24,"Pic_name":"Health/Oro/HCs/Ioma/","Field28":" ","Reported":0,"NHISCases":100,"BldRes5km":318,"BldOth5km":9,"BldRes10km":720,"BldOth10km":14,"BldRes15km":745,"BldOth15km":14,"BldRes20km":786,"BldOth20km":14,"BldRes30km":2593,"BldOth30km":27},"geometry":{"type":"Point","coordinates":[147.814899999735303,-8.364439999806109]}},
{"type":"Feature","properties":{"fid":53,"OBJECTID":180,"HCDESC":"Kira HC","PROVINCE":6,"DISTRICT":602,"HFCODE":60203,"Contact":"Birori Leleba","Designatio":"CHW","Phone_No":"2763673","New_XY":1,"TYPE":1,"AGENCY":1,"STATUS":1,"MO":0,"HEO":0,"NO":0,"CHW":2,"APOST":0,"TOTAL_MED_":2,"NO_DEPENDE":0,"LAT":" ","LONG":" ","X_new":147.327909,"X_Max":147.445304,"X_Min":147.210514,"Y_new":-8.064274,"Y_Max":-8.181006,"Y_Min":-7.947542,"Pic_name":"Health/Oro/HCs/Kira/","Field28":" ","Reported":0,"NHISCases":100,"BldRes5km":394,"BldOth5km":2,"BldRes10km":690,"BldOth10km":3,"BldRes15km":1121,"BldOth15km":4,"BldRes20km":1468,"BldOth20km":14,"BldRes30km":2509,"BldOth30km":27},"geometry":{"type":"Point","coordinates":[147.327908999900501,-8.064273999945101]}},
{"type":"Feature","properties":{"fid":54,"OBJECTID":181,"HCDESC":"Kokoda HC","PROVINCE":6,"DISTRICT":602,"HFCODE":60204,"Contact":"Ikilevei","Designatio":"CHW","Phone_No":"7169 0527","New_XY":1,"TYPE":1,"AGENCY":1,"STATUS":1,"MO":0,"HEO":2,"NO":2,"CHW":8,"APOST":8,"TOTAL_MED_":20,"NO_DEPENDE":12,"LAT":" ","LONG":" ","X_new":147.73,"X_Max":147.85,"X_Min":147.62,"Y_new":-8.88,"Y_Max":-9.0,"Y_Min":-8.76,"Pic_name":"Health/Oro/HCs/Kokoda/","Field28":" ","Reported":0,"NHISCases":100,"BldRes5km":1118,"BldOth5km":72,"BldRes10km":2003,"BldOth10km":87,"BldRes15km":2466,"BldOth15km":91,"BldRes20km":2954,"BldOth20km":97,"BldRes30km":5620,"BldOth30km":168},"geometry":{"type":"Point","coordinates":[147.73832700019102,-8.883472999679157]}},
{"type":"Feature","properties":{"fid":55,"OBJECTID":182,"HCDESC":"Manau SC","PROVINCE":6,"DISTRICT":602,"HFCODE":60205,"Contact":"Margaret Aberp","Designatio":"CHW","Phone_No":"2763693","New_XY":1,"TYPE":3,"AGENCY":2,"STATUS":1,"MO":0,"HEO":0,"NO":1,"CHW":3,"APOST":0,"TOTAL_MED_":4,"NO_DEPENDE":2,"LAT":" ","LONG":" ","X_new":147.98,"X_Max":148.09,"X_Min":147.86,"Y_new":-8.06,"Y_Max":-8.18,"Y_Min":-7.95,"Pic_name":"Health/Oro/HCs/Manau/","Field28":" ","Reported":0,"NHISCases":100,"BldRes5km":304,"BldOth5km":5,"BldRes10km":645,"BldOth10km":6,"BldRes15km":1072,"BldOth15km":16,"BldRes20km":1594,"BldOth20km":20,"BldRes30km":3078,"BldOth30km":36},"geometry":{"type":"Point","coordinates":[147.980223000091428,-8.06874099999709]}},
{"type":"Feature","properties":{"fid":56,"OBJECTID":183,"HCDESC":"Saiho HC","PROVINCE":6,"DISTRICT":602,"HFCODE":60206,"Contact":"Marie Viambu","Designatio":"OIC","Phone_No":"7278 2444","New_XY":1,"TYPE":1,"AGENCY":1,"STATUS":1,"MO":0,"HEO":0,"NO":4,"CHW":12,"APOST":11,"TOTAL_MED_":27,"NO_DEPENDE":12,"LAT":" ","LONG":" ","X_new":148.06,"X_Max":148.18,"X_Min":147.95,"Y_new":-8.82,"Y_Max":-8.94,"Y_Min":-8.71,"Pic_name":"Health/Oro/HCs/Saiho/","Field28":" ","Reported":0,"NHISCases":100,"BldRes5km":3415,"BldOth5km":69,"BldRes10km":10150,"BldOth10km":112,"BldRes15km":15000,"BldOth15km":231,"BldRes20km":20768,"BldOth20km":572,"BldRes30km":28568,"BldOth30km":868},"geometry":{"type":"Point","coordinates":[148.068538999775114,-8.827535000240005]}},
{"type":"Feature","properties":{"fid":57,"OBJECTID":184,"HCDESC":"Sangara HC","PROVINCE":6,"DISTRICT":602,"HFCODE":60207,"Contact":"Gerard Zorro","Designatio":"HEO","Phone_No":"7196 3969","New_XY":1,"TYPE":1,"AGENCY":1,"STATUS":1,"MO":0,"HEO":1,"NO":2,"CHW":10,"APOST":5,"TOTAL_MED_":18,"NO_DEPENDE":11,"LAT":" ","LONG":" ","X_new":148.19,"X_Max":148.31,"X_Min":148.07,"Y_new":-8.75,"Y_Max":-8.87,"Y_Min":-8.63,"Pic_name":"Health/Oro/HCs/Sangara/","Field28":" ","Reported":0,"NHISCases":100,"BldRes5km":4049,"BldOth5km":438,"BldRes10km":9366,"BldOth10km":596,"BldRes15km":15913,"BldOth15km":706,"BldRes20km":22175,"BldOth20km":789,"BldRes30km":30615,"BldOth30km":958},"geometry":{"type":"Point","coordinates":[148.196679999582329,-8.754070000130355]}},
{"type":"Feature","properties":{"fid":58,"OBJECTID":1973,"HCDESC":"Kubuna SC","PROVINCE":3,"DISTRICT":303,"HFCODE":30320,"Contact":null,"Designatio":null,"Phone_No":null,"New_XY":0,"TYPE":3,"AGENCY":null,"STATUS":null,"MO":null,"HEO":null,"NO":null,"CHW":null,"APOST":null,"TOTAL_MED_":null,"NO_DEPENDE":null,"LAT":null,"LONG":null,"X_new":146.75,"X_Max":146.87,"X_Min":146.63,"Y_new":-8.69,"Y_Max":-8.8,"Y_Min":-8.57,"Pic_name":"Pic_name\tHealth/Central/HCs/Kubuna/","Field28":null,"Reported":1,"NHISCases":null,"BldRes5km":null,"BldOth5km":null,"BldRes10km":null,"BldOth10km":null,"BldRes15km":null,"BldOth15km":null,"BldRes20km":null,"BldOth20km":null,"BldRes30km":null,"BldOth30km":null},"geometry":{"type":"Point","coordinates":[146.755363887633393,-8.690475757350271]}},
{"type":"Feature","properties":{"fid":59,"OBJECTID":1974,"HCDESC":"Kanosia SC","PROVINCE":3,"DISTRICT":303,"HFCODE":30321,"Contact":null,"Designatio":null,"Phone_No":null,"New_XY":0,"TYPE":3,"AGENCY":null,"STATUS":null,"MO":null,"HEO":null,"NO":null,"CHW":null,"APOST":null,"TOTAL_MED_":null,"NO_DEPENDE":null,"LAT":null,"LONG":null,"X_new":146.98,"X_Max":147.1,"X_Min":146.86,"Y_new":-8.99,"Y_Max":-9.11,"Y_Min":-8.87,"Pic_name":"Pic_name\tHealth/Central/HCs/Kanosia/","Field28":null,"Reported":0,"NHISCases":null,"BldRes5km":null,"BldOth5km":null,"BldRes10km":null,"BldOth10km":null,"BldRes15km":null,"BldOth15km":null,"BldRes20km":null,"BldOth20km":null,"BldRes30km":null,"BldOth30km":null},"geometry":{"type":"Point","coordinates":[146.985417741635501,-8.996015425871178]}},
{"type":"Feature","properties":{"fid":60,"OBJECTID":1975,"HCDESC":"Manari SC","PROVINCE":3,"DISTRICT":303,"HFCODE":30322,"Contact":null,"Designatio":null,"Phone_No":null,"New_XY":0,"TYPE":3,"AGENCY":null,"STATUS":null,"MO":null,"HEO":null,"NO":null,"CHW":null,"APOST":null,"TOTAL_MED_":null,"NO_DEPENDE":null,"LAT":null,"LONG":null,"X_new":147.62,"X_Max":147.74,"X_Min":147.5,"Y_new":-9.19,"Y_Max":-9.3,"Y_Min":-9.07,"Pic_name":"Pic_name\tHealth/Central/HCs/Manari/","Field28":null,"Reported":0,"NHISCases":null,"BldRes5km":null,"BldOth5km":null,"BldRes10km":null,"BldOth10km":null,"BldRes15km":null,"BldOth15km":null,"BldRes20km":null,"BldOth20km":null,"BldRes30km":null,"BldOth30km":null},"geometry":{"type":"Point","coordinates":[147.622598661798861,-9.190756368211794]}},
{"type":"Feature","properties":{"fid":61,"OBJECTID":2375,"HCDESC":"Siroga HC","PROVINCE":6,"DISTRICT":602,"HFCODE":60208,"Contact":null,"Designatio":null,"Phone_No":null,"New_XY":0,"TYPE":1,"AGENCY":null,"STATUS":null,"MO":null,"HEO":null,"NO":null,"CHW":null,"APOST":null,"TOTAL_MED_":null,"NO_DEPENDE":null,"LAT":null,"LONG":null,"X_new":148.2,"X_Max":148.31,"X_Min":148.08,"Y_new":-8.72,"Y_Max":-8.84,"Y_Min":-8.61,"Pic_name":"Health/Oro/HCs/Siroga/","Field28":null,"Reported":0,"NHISCases":null,"BldRes5km":null,"BldOth5km":null,"BldRes10km":null,"BldOth10km":null,"BldRes15km":null,"BldOth15km":null,"BldRes20km":null,"BldOth20km":null,"BldRes30km":null,"BldOth30km":null},"geometry":{"type":"Point","coordinates":[148.20042764182233,-8.726840873107733]}},
{"type":"Feature","properties":{"fid":62,"OBJECTID":8376,"HCDESC":"Paramana SC","PROVINCE":3,"DISTRICT":306,"HFCODE":30106,"Contact":null,"Designatio":null,"Phone_No":null,"New_XY":0,"TYPE":null,"AGENCY":null,"STATUS":null,"MO":null,"HEO":null,"NO":null,"CHW":null,"APOST":null,"TOTAL_MED_":null,"NO_DEPENDE":null,"LAT":"-10.157151","LONG":"148.005273","X_new":148.0,"X_Max":148.12,"X_Min":147.88,"Y_new":-10.15,"Y_Max":-10.27,"Y_Min":-10.04,"Pic_name":"Health/Central/HCs/Paramana/","Field28":null,"Reported":0,"NHISCases":null,"BldRes5km":null,"BldOth5km":null,"BldRes10km":null,"BldOth10km":null,"BldRes15km":null,"BldOth15km":null,"BldRes20km":null,"BldOth20km":null,"BldRes30km":null,"BldOth30km":null},"geometry":{"type":"Point","coordinates":[148.005303534330665,-10.156983308832594]}},
{"type":"Feature","properties":{"fid":63,"OBJECTID":8790,"HCDESC":"Bam CHP","PROVINCE":3,"DISTRICT":301,"HFCODE":30107,"Contact":null,"Designatio":null,"Phone_No":null,"New_XY":1,"TYPE":1,"AGENCY":null,"STATUS":1,"MO":null,"HEO":null,"NO":null,"CHW":null,"APOST":null,"TOTAL_MED_":null,"NO_DEPENDE":null,"LAT":null,"LONG":null,"X_new":148.937581,"X_Max":149.0534,"X_Min":148.8186,"Y_new":-10.050294,"Y_Max":-10.1703,"Y_Min":-9.9369,"Pic_name":"Health/Central/HCs/Bam/","Field28":null,"Reported":1,"NHISCases":null,"BldRes5km":null,"BldOth5km":null,"BldRes10km":null,"BldOth10km":null,"BldRes15km":null,"BldOth15km":null,"BldRes20km":null,"BldOth20km":null,"BldRes30km":null,"BldOth30km":null},"geometry":{"type":"Point","coordinates":[148.935732633554267,-10.05123158247153]}},
{"type":"Feature","properties":{"fid":9998,"OBJECTID":19993,"HCDESC":"RMC UC","PROVINCE":3,"DISTRICT":303,"HFCODE":30508,"Contact":"Sr. Laitah","Designatio":"RNO","Phone_No":"722 99931","New_XY":1,"TYPE":3,"AGENCY":1,"STATUS":1,"MO":0,"HEO":0,"NO":2,"CHW":2,"APOST":0,"TOTAL_MED_":4,"NO_DEPENDE":0,"LAT":" ","LONG":" ","X_new":147.11,"X_Max":147.23,"X_Min":146.99,"Y_new":-9.06,"Y_Max":-9.18,"Y_Min":-8.95,"Pic_name":"Health/Central/HCs/RMC/","Field28":" ","Reported":0,"NHISCases":100,"BldRes5km":518,"BldOth5km":11,"BldRes10km":1139,"BldOth10km":50,"BldRes15km":1471,"BldOth15km":58,"BldRes20km":1886,"BldOth20km":75,"BldRes30km":4330,"BldOth30km":187},"geometry":{"type":"Point","coordinates":[147.1576650886555,-9.46091639916406]}}
]
}
